IRIDIUM 144             
1 43249U 18030A   24155.28888262  .00000260  00000+0  85892-4 0  9998
2 43249  86.3984 241.2658 0002281 102.0807 258.0644 14.34217961323512
IRIDIUM 149             
1 43250U 18030B   24155.50453101 -.00000017  00000+0 -12996-4 0  9992
2 43250  86.3983 241.1511 0002381  97.8954 262.2512 14.34217488323565
IRIDIUM 157             
1 43251U 18030C   24155.31425324  .00000112  00000+0  32932-4 0  9994
2 43251  86.3986 241.2672 0002463  89.7619 270.3859 14.34217430323513
IRIDIUM 140             
1 43252U 18030D   24155.47281691  .00000027  00000+0  24319-5 0  9995
2 43252  86.3989 241.2157 0001909 106.8413 253.2992 14.34217677323591
IRIDIUM 145             
1 43253U 18030E   24155.66943844  .00000032  00000+0  43417-5 0  9998
2 43253  86.3986 241.1072 0002537 104.2771 255.8706 14.34217791323555
IRIDIUM 146             
1 43254U 18030F   24155.30156817  .00000303  00000+0  10112-3 0  9991
2 43254  86.3986 241.2758 0002346  98.8516 261.2946 14.34217759323518
IRIDIUM 148             
1 43255U 18030G   24155.54894008  .00000423  00000+0  14383-3 0  9996
2 43255  86.3985 241.2040 0002476  94.1999 265.9480 14.34216671323583
IRIDIUM 142             
1 43256U 18030H   24155.51721605  .00000167  00000+0  52401-4 0  9995
2 43256  86.3981 241.1333 0002451 103.3679 256.7790 14.34218950323545
